PELICAN-1               
1 58296U 23174AS  26188.22723064  .00007175  00000+0  54763-4 0  9996
2 58296  97.3953 289.8222 0004749 148.5978 211.5570 15.72538596149317
PELICAN-2               
1 62631U 25009Y   26187.72523016  .00000035  00000+0  28267-5 0  9991
2 62631  97.2272 278.3913 0001801 132.2744 227.8656 15.40647671 82563
PELICAN-3               
1 65315U 25188A   26187.72486410  .00006403  00000+0  15759-3 0  9992
2 65315  97.1977 263.5832 0001656 106.3145 253.8284 15.40948044 48327
PELICAN-4               
1 65316U 25188B   26187.67727809  .00006711  00000+0  16525-3 0  9991
2 65316  97.1992 263.6911 0000846  99.4399 260.6944 15.40914436 48313
PELICAN-5               
1 66667U 25276B   26188.20653944  .00004158  00000+0  13855-3 0  9993
2 66667  97.4125 263.1681 0002523 349.8417  10.2773 15.31667108 33583
PELICAN-6               
1 66703U 25276AP  26188.20179061  .00005041  00000+0  17061-3 0  9992
2 66703  97.3772 263.2256 0002585  55.7977 304.3509 15.31057046 33591
PELICAN-7               
1 69017U 26100AP  26188.18157015  .00001370  00000+0  60535-4 0  9998
2 69017  97.3912  85.7529 0003552  90.4078 269.7566 15.23394443  9856
PELICAN-9               
1 69019U 26100AR  26188.15069159  .00001693  00000+0  77920-4 0  9992
2 69019  97.3812  85.5795 0002777   7.1222 353.0053 15.21662818  9843
